NETSAT-2
1 46507U 20068X   26068.93379060  .00027118  00000-0  64543-3 0  9991
2 46507  97.8659  69.0583 0004440  21.2445 338.8984 15.41593314300427
COLIBRI-S (RS67S)
1 61746U 24199M   26068.94389628  .00024717  00000-0  55254-3 0  9995
2 61746  97.3155 302.1068 0007541 284.1345  75.9065 15.43465994122085
